{
    "links": {
        "self": "http://www.neowsapp.com/rest/v1/neo/3781303?api_key=iIulBulltgU6a56xZRHN4H3l9WmuAYTsLGpBGhQ2"
    },
    "id": "3781303",
    "neo_reference_id": "3781303",
    "name": "(2017 QA35)",
    "designation": "2017 QA35",
    "nasa_jpl_url": "http://ssd.jpl.nasa.gov/sbdb.cgi?sstr=3781303",
    "absolute_magnitude_h": 23.4,
    "estimated_diameter": {
        "kilometers": {
            "estimated_diameter_min": 0.0555334912,
            "estimated_diameter_max": 0.1241766613
        },
        "meters": {
            "estimated_diameter_min": 55.5334911581,
            "estimated_diameter_max": 124.1766612574
        },
        "miles": {
            "estimated_diameter_min": 0.0345069009,
            "estimated_diameter_max": 0.0771597762
        },
        "feet": {
            "estimated_diameter_min": 182.1964991311,
            "estimated_diameter_max": 407.4037573197
        }
    },
    "is_potentially_hazardous_asteroid": false,
    "close_approach_data": [
        {
            "close_approach_date": "2015-02-11",
            "close_approach_date_full": "2015-Feb-11 21:05",
            "epoch_date_close_approach": 1423688700000,
            "relative_velocity": {
                "kilometers_per_second": "14.7414992243",
                "kilometers_per_hour": "53069.3972075002",
                "miles_per_hour": "32975.2596148492"
            },
            "miss_distance": {
                "astronomical": "0.4885665234",
                "lunar": "190.0523776026",
                "kilometers": "73088511.253945158",
                "miles": "45415094.9672648604"
            },
            "orbiting_body": "Earth"
        },
        {
            "close_approach_date": "2017-09-07",
            "close_approach_date_full": "2017-Sep-07 16:40",
            "epoch_date_close_approach": 1504802400000,
            "relative_velocity": {
                "kilometers_per_second": "15.2878190079",
                "kilometers_per_hour": "55036.1484285505",
                "miles_per_hour": "34197.3223388402"
            },
            "miss_distance": {
                "astronomical": "0.116902961",
                "lunar": "45.475251829",
                "kilometers": "17488433.96229307",
                "miles": "10866808.963541566"
            },
            "orbiting_body": "Earth"
        }
    ],
    "orbital_data": {
        "orbit_id": "3",
        "orbit_determination_date": "2017-09-17 06:18:50",
        "first_observation_date": "2017-08-30",
        "last_observation_date": "2017-09-16",
        "data_arc_in_days": 17,
        "observations_used": 31,
        "orbit_uncertainty": "8",
        "minimum_orbit_intersection": ".116602",
        "jupiter_tisserand_invariant": "4.760",
        "epoch_osculation": "2457997.5",
        "eccentricity": ".185832011734961",
        "semi_major_axis": "1.337447449457338",
        "inclination": "29.20909974360999",
        "ascending_node_longitude": "163.2170884982337",
        "orbital_period": "564.9545584426357",
        "perihelion_distance": "1.088906899334888",
        "perihelion_argument": "218.1457252089473",
        "aphelion_distance": "1.585987999579787",
        "perihelion_time": "2458042.541223588098",
        "mean_anomaly": "331.2988589092662",
        "mean_motion": ".6372193915779399",
        "equinox": "J2000",
        "orbit_class": {
            "orbit_class_type": "AMO",
            "orbit_class_description": "Near-Earth asteroid orbits similar to that of 1221 Amor",
            "orbit_class_range": "1.017 AU < q (perihelion) < 1.3 AU"
        }
    },
    "is_sentry_object": false
}